GPS BIIR-2  (PRN 13)    
1 24876U 97035A   21262.13453575 -.00000021  00000-0  00000-0 0  9991
2 24876  55.4783 166.2589 0052578  53.8606 306.6645  2.00562426177218
GPS BIIR-4  (PRN 20)    
1 26360U 00025A   21262.51694163  .00000005  00000-0  00000-0 0  9997
2 26360  53.8444  90.0801 0055060 173.3688 190.0191  2.00565368156544
GPS BIIR-8  (PRN 16)    
1 27663U 03005A   21261.78418828  .00000003  00000-0  00000-0 0  9993
2 27663  55.7059 283.8402 0120715  38.0346 134.8983  2.00553712136566
GPS BIIR-9  (PRN 21)    
1 27704U 03010A   21261.77578203 -.00000090  00000-0  00000-0 0  9995
2 27704  54.9075  34.3257 0242631 297.5914  85.4888  2.00567584135367
GPS BIIR-10 (PRN 22)    
1 28129U 03058A   21261.82611452  .00000009  00000-0  00000-0 0  9998
2 28129  53.6542  92.7521 0069159 307.6225  51.8209  2.00556403130048
GPS BIIR-11 (PRN 19)    
1 28190U 04009A   21262.06644660 -.00000094  00000-0  00000-0 0  9992
2 28190  56.1443 344.7389 0089079 111.8604  65.1385  2.00566484128203
GPS BIIR-13 (PRN 02)    
1 28474U 04045A   21262.19548242 -.00000091  00000-0  00000-0 0  9997
2 28474  55.2404  34.3471 0205124 274.3147 267.6301  2.00553869123695
GPS BIIRM-1 (PRN 17)    
1 28874U 05038A   21262.15606723 -.00000090  00000-0  00000-0 0  9998
2 28874  56.2226 342.1554 0138158 270.8384 354.5243  2.00565043117095
GPS BIIRM-2 (PRN 31)    
1 29486U 06042A   21262.15339376 -.00000028  00000-0  00000-0 0  9992
2 29486  54.7563 220.0703 0101311  15.7666 161.7073  2.00570569109653
GPS BIIRM-3 (PRN 12)    
1 29601U 06052A   21262.35436320 -.00000002  00000-0  00000-0 0  9993
2 29601  55.7044 282.7462 0080157  69.9403 290.9674  2.00563114108679
GPS BIIRM-4 (PRN 15)    
1 32260U 07047A   21262.15858182 -.00000009  00000-0  00000-0 0  9992
2 32260  53.2480 151.7875 0134736  58.4108 302.9648  2.00562499102070
GPS BIIRM-5 (PRN 29)    
1 32384U 07062A   21262.36126777 -.00000091  00000-0  00000-0 0  9998
2 32384  56.3329 342.8746 0017821 139.5036 136.1444  2.00575234100776
GPS BIIRM-6 (PRN 07)    
1 32711U 08012A   21262.07585381 -.00000029  00000-0  00000-0 0  9997
2 32711  54.5108 219.0704 0154573 228.4355 130.1935  2.00555828 99012
GPS BIIRM-8 (PRN 05)    
1 35752U 09043A   21261.56158359  .00000017  00000-0  00000-0 0  9990
2 35752  54.8707  96.4936 0058988  55.6198 305.7382  2.00573512 88610
GPS BIIF-1  (PRN 25)    
1 36585U 10022A   21261.62571184  .00000007  00000-0  00000-0 0  9995
2 36585  54.9822 278.4833 0096839  54.6559 116.0763  2.00575507 82840
GPS BIIF-2  (PRN 01)    
1 37753U 11036A   21262.52168153 -.00000083  00000-0  00000-0 0  9992
2 37753  56.4716  39.2711 0109014  50.1905 128.6541  2.00563778 74549
GPS BIIF-3  (PRN 24)    
1 38833U 12053A   21261.75794974 -.00000033  00000-0  00000-0 0  9997
2 38833  53.5617 214.4883 0114337  42.5919 318.2511  2.00558506 64690
GPS BIIF-4  (PRN 27)    
1 39166U 13023A   21261.62188221 -.00000086  00000-0  00000-0 0  9991
2 39166  55.8618 338.6545 0093634  35.2478 325.4176  2.00567458 61134
GPS BIIF-5  (PRN 30)    
1 39533U 14008A   21262.11979834 -.00000030  00000-0  00000-0 0  9995
2 39533  53.6625 219.9523 0054560 205.6516 154.0400  2.00566221 54948
GPS BIIF-6  (PRN 06)    
1 39741U 14026A   21261.40075643 -.00000079  00000-0  00000-0 0  9995
2 39741  56.4379  38.8420 0023808 298.8739  60.8856  2.00575218 53788
GPS BIIF-7  (PRN 09)    
1 40105U 14045A   21261.49064742 -.00000020  00000-0  00000-0 0  9995
2 40105  54.6382 157.6642 0019446 105.4452 254.8227  2.00559257 51322
GPS BIIF-8  (PRN 03)    
1 40294U 14068A   21261.35890215  .00000021  00000-0  00000-0 0  9996
2 40294  55.6166  98.7003 0036820  54.1250 306.2957  2.00552400 50457
GPS BIIF-9  (PRN 26)    
1 40534U 15013A   21260.99831225  .00000012  00000-0  00000-0 0  9999
2 40534  53.8877 275.9771 0060571  14.6844 345.5301  2.00569154 47060
GPS BIIF-10 (PRN 08)    
1 40730U 15033A   21262.15534568 -.00000085  00000-0  00000-0 0  9990
2 40730  55.3668 337.5906 0064828   1.0694 358.9980  2.00566087 45252
GPS BIIF-11 (PRN 10)    
1 41019U 15062A   21262.20578133  .00000020  00000-0  00000-0 0  9993
2 41019  55.6089  98.5042 0070716 213.3441 146.2853  2.00563365 43092
GPS BIIF-12 (PRN 32)    
1 41328U 16007A   21262.29744087 -.00000011  00000-0  00000-0 0  9999
2 41328  54.8630 158.2355 0052542 225.6623 133.9628  2.00558084 41109
GPS BIII-1  (PRN 04)    
1 43873U 18109A   21262.37184830 -.00000013  00000-0  00000-0 0  9996
2 43873  55.0441 160.5942 0014349 193.6272 112.5354  2.00560862 20332
GPS BIII-2  (PRN 18)    
1 44506U 19056A   21262.33399847 -.00000083  00000-0  00000-0 0  9991
2 44506  55.5400  39.8525 0019230 175.8685   3.8974  2.00566941 15333
GPS BIII-3  (PRN 23)    
1 45854U 20041A   21262.18100750  .00000018  00000-0  00000-0 0  9997
2 45854  55.3238  97.1250 0016108 161.5444 210.1605  2.00563772  9308
GPS BIII-4  (PRN 14)    
1 46826U 20078A   21262.22452367 -.00000003  00000-0  00000-0 0  9991
2 46826  54.7561 281.0927 0011140 190.4815 181.7619  2.00566705  6774
